{"type":"FeatureCollection", "features": [
{"type":"Feature","geometry":{"type":"MultiPolygon","coordinates":[[[[-58.35134,-34.61936],[-58.35068,-34.61917],[-58.34997,-34.61872],[-58.35023,-34.61821],[-58.35017,-34.61751],[-58.34949,-34.61708],[-58.34865,-34.61692],[-58.34781,-34.61705],[-58.34718,-34.61736],[-58.34619,-34.61755],[-58.34567,-34.6175],[-58.34501,-34.61772],[-58.34464,-34.61771],[-58.34246,-34.61706],[-58.34154,-34.61706],[-58.34072,-34.6169],[-58.33988,-34.6161],[-58.33985,-34.61505],[-58.33998,-34.61388],[-58.34034,-34.61246],[-58.34087,-34.61067],[-58.34141,-34.60993],[-58.34268,-34.60899],[-58.34406,-34.6079],[-58.34493,-34.60746],[-58.34563,-34.60701],[-58.34606,-34.60626],[-58.34617,-34.60542],[-58.34608,-34.605],[-58.34633,-34.60473],[-58.34654,-34.60401],[-58.34678,-34.60236],[-58.348,-34.60129],[-58.34878,-34.60084],[-58.34936,-34.60031],[-58.34974,-34.60011],[-58.3505,-34.5993],[-58.35116,-34.59892],[-58.35211,-34.59803],[-58.35282,-34.59749],[-58.35305,-34.59704],[-58.35344,-34.5967],[-58.35502,-34.59572],[-58.35544,-34.59532],[-58.35669,-34.59486],[-58.35886,-34.59492],[-58.36037,-34.59505],[-58.36039,-34.59552],[-58.36248,-34.5965],[-58.36342,-34.59666],[-58.36387,-34.59542],[-58.36441,-34.59553],[-58.36384,-34.5972],[-58.36619,-34.59743],[-58.36609,-34.59821],[-58.36638,-34.59823],[-58.36653,-34.59741],[-58.36791,-34.59748],[-58.36905,-34.59425],[-58.36907,-34.59413],[-58.36717,-34.59333],[-58.3679,-34.59212],[-58.36766,-34.59198],[-58.36689,-34.59321],[-58.36639,-34.59299],[-58.36728,-34.59155],[-58.36699,-34.59151],[-58.3662,-34.59273],[-58.3659,-34.59284],[-58.36483,-34.59446],[-58.36439,-34.59419],[-58.36649,-34.59102],[-58.36708,-34.59066],[-58.36749,-34.59066],[-58.36791,-34.59043],[-58.368,-34.59001],[-58.35984,-34.58835],[-58.35946,-34.58808],[-58.35966,-34.58719],[-58.36345,-34.58749],[-58.36362,-34.58624],[-58.35976,-34.58594],[-58.35972,-34.58587],[-58.35996,-34.58412],[-58.36491,-34.5845],[-58.36614,-34.58358],[-58.3661,-34.58334],[-58.36142,-34.58297],[-58.36163,-34.58115],[-58.36898,-34.58173],[-58.37056,-34.58084],[-58.37057,-34.58059],[-58.36531,-34.58017],[-58.36532,-34.57971],[-58.36788,-34.57824],[-58.36801,-34.57822],[-58.37423,-34.57871],[-58.37602,-34.57774],[-58.37605,-34.57749],[-58.37672,-34.57755],[-58.37398,-34.57911],[-58.37513,-34.58053],[-58.37617,-34.57996],[-58.37984,-34.58017],[-58.38286,-34.57845],[-58.38358,-34.57824],[-58.38428,-34.57819],[-58.38507,-34.57825],[-58.38613,-34.57822],[-58.38659,-34.57812],[-58.38987,-34.57821],[-58.39165,-34.58084],[-58.3913,-34.58095],[-58.38845,-34.58246],[-58.38784,-34.58287],[-58.38665,-34.58386],[-58.38533,-34.58539],[-58.3845,-34.58697],[-58.38369,-34.58751],[-58.38692,-34.59078],[-58.38791,-34.59169],[-58.38757,-34.59284],[-58.38728,-34.59475],[-58.38714,-34.59594],[-58.38707,-34.59718],[-58.38687,-34.5993],[-58.39294,-34.59964],[-58.39258,-34.60212],[-58.39239,-34.60316],[-58.39213,-34.60664],[-58.39181,-34.61128],[-58.39166,-34.61584],[-58.3917,-34.61816],[-58.39161,-34.62054],[-58.39144,-34.62399],[-58.39117,-34.62726],[-58.39093,-34.62933],[-58.39053,-34.63267],[-58.39036,-34.63413],[-58.38877,-34.63376],[-58.38864,-34.63373],[-58.38847,-34.63369],[-58.38763,-34.63346],[-58.38652,-34.63315],[-58.38399,-34.6324],[-58.3834,-34.63222],[-58.38174,-34.63114],[-58.38134,-34.63085],[-58.38131,-34.63158],[-58.38129,-34.63209],[-58.38128,-34.6325],[-58.38125,-34.63307],[-58.38015,-34.63304],[-58.3801,-34.63264],[-58.37958,-34.6323],[-58.37912,-34.6314],[-58.37863,-34.6305],[-58.37905,-34.62934],[-58.37772,-34.62848],[-58.37558,-34.62731],[-58.37457,-34.6268],[-58.37366,-34.62678],[-58.37255,-34.62674],[-58.37173,-34.6267],[-58.37113,-34.62666],[-58.37097,-34.62665],[-58.37097,-34.62666],[-58.37071,-34.62883],[-58.37046,-34.6293],[-58.36945,-34.62833],[-58.3681,-34.62719],[-58.36798,-34.62711],[-58.36798,-34.6252],[-58.36649,-34.6252],[-58.36326,-34.62514],[-58.36308,-34.62501],[-58.36266,-34.62457],[-58.36261,-34.62452],[-58.36242,-34.62433],[-58.36234,-34.62423],[-58.36201,-34.62387],[-58.36193,-34.62379],[-58.36188,-34.62373],[-58.36178,-34.62364],[-58.36167,-34.62351],[-58.36163,-34.62349],[-58.36158,-34.62344],[-58.36127,-34.62312],[-58.35604,-34.61764],[-58.35602,-34.61761],[-58.35581,-34.61812],[-58.3554,-34.61903],[-58.35515,-34.61955],[-58.35482,-34.61952],[-58.35426,-34.61947],[-58.35392,-34.61962],[-58.35352,-34.61941],[-58.35303,-34.61962],[-58.35294,-34.61976],[-58.35257,-34.61954],[-58.35223,-34.61962],[-58.35179,-34.61955],[-58.35166,-34.61947],[-58.35158,-34.61943],[-58.35152,-34.61939],[-58.3515,-34.61938],[-58.35149,-34.61938],[-58.35149,-34.61937],[-58.35148,-34.61937],[-58.35147,-34.61937],[-58.35147,-34.61936],[-58.35144,-34.61935],[-58.35143,-34.61935],[-58.35141,-34.61936],[-58.3514,-34.61936],[-58.35139,-34.61936],[-58.35134,-34.61936]]],[[[-58.35544,-34.5919],[-58.35529,-34.59173],[-58.35559,-34.59086],[-58.35703,-34.58416],[-58.35798,-34.57966],[-58.35827,-34.57917],[-58.36522,-34.5752],[-58.36522,-34.57528],[-58.35829,-34.57923],[-58.35805,-34.57966],[-58.35711,-34.58416],[-58.35614,-34.58867],[-58.35569,-34.59086],[-58.35562,-34.59166],[-58.35544,-34.5919]]]]},"properties":{"comuna":1,"barrios":"Constitucion, San Telmo, Monserrat, Retiro, Puerto Madero, San Nicolas"}},
{"type":"Feature","geometry":{"type":"Polygon","coordinates":[[[-58.37605,-34.57749],[-58.37077,-34.57707],[-58.37077,-34.5766],[-58.37544,-34.57393],[-58.37552,-34.57391],[-58.38184,-34.57441],[-58.38355,-34.57344],[-58.38357,-34.57319],[-58.37836,-34.57278],[-58.37831,-34.57231],[-58.38051,-34.57104],[-58.38036,-34.57048],[-58.37906,-34.57039],[-58.37855,-34.57055],[-58.37584,-34.57209],[-58.37422,-34.57313],[-58.37134,-34.57478],[-58.37138,-34.57465],[-58.37415,-34.57308],[-58.37612,-34.5718],[-58.37368,-34.5716],[-58.37252,-34.57154],[-58.36445,-34.5709],[-58.3621,-34.57075],[-58.36165,-34.57084],[-58.36008,-34.57171],[-58.35994,-34.57159],[-58.36165,-34.57065],[-58.36442,-34.57082],[-58.37229,-34.57143],[-58.37616,-34.57166],[-58.37656,-34.57157],[-58.37856,-34.57045],[-58.37915,-34.5703],[-58.38003,-34.57037],[-58.38023,-34.56985],[-58.38027,-34.56895],[-58.38016,-34.56855],[-58.37979,-34.56831],[-58.3761,-34.56802],[-58.36825,-34.56731],[-58.36826,-34.56723],[-58.37014,-34.5674],[-58.37598,-34.56787],[-58.37996,-34.5682],[-58.38039,-34.56847],[-58.38036,-34.5701],[-58.38071,-34.57012],[-58.38075,-34.5694],[-58.38097,-34.56865],[-58.38147,-34.56843],[-58.38312,-34.56838],[-58.38369,-34.56851],[-58.38429,-34.5689],[-58.39023,-34.56939],[-58.3905,-34.56943],[-58.39105,-34.57008],[-58.39127,-34.57061],[-58.38665,-34.57323],[-58.38794,-34.57488],[-58.3895,-34.57403],[-58.39299,-34.57198],[-58.39321,-34.57222],[-58.39482,-34.57232],[-58.39521,-34.5722],[-58.39878,-34.57016],[-58.39918,-34.56996],[-58.3993,-34.5699],[-58.39966,-34.5702],[-58.39972,-34.57081],[-58.40265,-34.57415],[-58.40166,-34.57532],[-58.40115,-34.57574],[-58.39994,-34.5765],[-58.39859,-34.57718],[-58.39656,-34.57851],[-58.39811,-34.58071],[-58.39937,-34.58272],[-58.40055,-34.58448],[-58.40113,-34.58395],[-58.40195,-34.58343],[-58.40618,-34.58346],[-58.4064,-34.58381],[-58.41008,-34.58906],[-58.41353,-34.59308],[-58.4144,-34.59406],[-58.416,-34.59786],[-58.41192,-34.59801],[-58.4103,-34.5981],[-58.40451,-34.59804],[-58.40201,-34.59937],[-58.39873,-34.59977],[-58.39294,-34.59964],[-58.38687,-34.5993],[-58.38707,-34.59718],[-58.38714,-34.59594],[-58.38728,-34.59475],[-58.38757,-34.59284],[-58.38791,-34.59169],[-58.38692,-34.59078],[-58.38369,-34.58751],[-58.3845,-34.58697],[-58.38533,-34.58539],[-58.38665,-34.58386],[-58.38784,-34.58287],[-58.38845,-34.58246],[-58.3913,-34.58095],[-58.39165,-34.58084],[-58.38987,-34.57821],[-58.38659,-34.57812],[-58.38613,-34.57822],[-58.38507,-34.57825],[-58.38428,-34.57819],[-58.38358,-34.57824],[-58.38286,-34.57845],[-58.37984,-34.58017],[-58.37617,-34.57996],[-58.37513,-34.58053],[-58.37398,-34.57911],[-58.37672,-34.57755],[-58.37605,-34.57749]]]},"properties":{"comuna":2,"barrios":"Recoleta"}},
{"type":"Feature","geometry":{"type":"Polygon","coordinates":[[[-58.41192,-34.59801],[-58.4123,-34.60036],[-58.41391,-34.60725],[-58.4141,-34.60791],[-58.41466,-34.60819],[-58.41447,-34.61074],[-58.41332,-34.61286],[-58.41287,-34.61412],[-58.41264,-34.61959],[-58.41244,-34.62189],[-58.41205,-34.62298],[-58.41234,-34.62304],[-58.41207,-34.62514],[-58.41178,-34.63036],[-58.41083,-34.63013],[-58.41052,-34.63005],[-58.41004,-34.62993],[-58.40837,-34.62952],[-58.40652,-34.62931],[-58.40192,-34.62879],[-58.40167,-34.62876],[-58.39991,-34.62857],[-58.39852,-34.6284],[-58.39844,-34.62838],[-58.39549,-34.62786],[-58.39535,-34.62783],[-58.39321,-34.62745],[-58.39216,-34.62727],[-58.39162,-34.62726],[-58.39117,-34.62726],[-58.39144,-34.62399],[-58.39161,-34.62054],[-58.3917,-34.61816],[-58.39166,-34.61584],[-58.39181,-34.61128],[-58.39213,-34.60664],[-58.39239,-34.60316],[-58.39258,-34.60212],[-58.39294,-34.59964],[-58.39873,-34.59977],[-58.40201,-34.59937],[-58.40451,-34.59804],[-58.4103,-34.5981],[-58.41192,-34.59801]]]},"properties":{"comuna":3,"barrios":"San Cristobal, Balvanera"}},
{"type":"Feature","geometry":{"type":"Polygon","coordinates":[[[-58.35482,-34.61952],[-58.35515,-34.61955],[-58.3554,-34.61903],[-58.35581,-34.61812],[-58.35602,-34.61761],[-58.35604,-34.61764],[-58.36127,-34.62312],[-58.36158,-34.62344],[-58.36163,-34.62349],[-58.36167,-34.62351],[-58.36178,-34.62364],[-58.36188,-34.62373],[-58.36193,-34.62379],[-58.36201,-34.62387],[-58.36234,-34.62423],[-58.36242,-34.62433],[-58.36261,-34.62452],[-58.36266,-34.62457],[-58.36308,-34.62501],[-58.36326,-34.62514],[-58.36649,-34.6252],[-58.36798,-34.6252],[-58.36798,-34.62711],[-58.3681,-34.62719],[-58.36945,-34.62833],[-58.37046,-34.6293],[-58.37071,-34.62883],[-58.37097,-34.62666],[-58.37097,-34.62665],[-58.37113,-34.62666],[-58.37173,-34.6267],[-58.37255,-34.62674],[-58.37366,-34.62678],[-58.37457,-34.6268],[-58.37558,-34.62731],[-58.37772,-34.62848],[-58.37905,-34.62934],[-58.37863,-34.6305],[-58.37912,-34.6314],[-58.37958,-34.6323],[-58.3801,-34.63264],[-58.38015,-34.63304],[-58.38125,-34.63307],[-58.38128,-34.6325],[-58.38129,-34.63209],[-58.38131,-34.63158],[-58.38134,-34.63085],[-58.38174,-34.63114],[-58.3834,-34.63222],[-58.38399,-34.6324],[-58.38652,-34.63315],[-58.38763,-34.63346],[-58.38847,-34.63369],[-58.38864,-34.63373],[-58.38877,-34.63376],[-58.39036,-34.63413],[-58.39053,-34.63267],[-58.39093,-34.62933],[-58.39117,-34.62726],[-58.39162,-34.62726],[-58.39216,-34.62727],[-58.39321,-34.62745],[-58.39535,-34.62783],[-58.39549,-34.62786],[-58.39844,-34.62838],[-58.39852,-34.6284],[-58.39991,-34.62857],[-58.40167,-34.62876],[-58.40192,-34.62879],[-58.40652,-34.62931],[-58.40837,-34.62952],[-58.41004,-34.62993],[-58.41052,-34.63005],[-58.41083,-34.63013],[-58.41178,-34.63036],[-58.41148,-34.63297],[-58.41099,-34.63424],[-58.41057,-34.6351],[-58.41052,-34.63571],[-58.41093,-34.63705],[-58.41126,-34.6381],[-58.41592,-34.63891],[-58.41609,-34.63894],[-58.41709,-34.63911],[-58.41845,-34.63934],[-58.41846,-34.63934],[-58.41863,-34.63936],[-58.42092,-34.63975],[-58.42349,-34.6402],[-58.43093,-34.64145],[-58.43235,-34.64175],[-58.43211,-34.64517],[-58.43262,-34.64522],[-58.43493,-34.64624],[-58.4345,-34.64668],[-58.43043,-34.64988],[-58.43203,-34.65121],[-58.43444,-34.65312],[-58.43139,-34.65534],[-58.42675,-34.65868],[-58.42404,-34.66205],[-58.42329,-34.6616],[-58.42185,-34.66086],[-58.42089,-34.66047],[-58.41946,-34.66001],[-58.41868,-34.65986],[-58.41689,-34.65938],[-58.41456,-34.65861],[-58.41352,-34.65844],[-58.41241,-34.65838],[-58.4109,-34.65866],[-58.41013,-34.65889],[-58.40925,-34.65948],[-58.40831,-34.65985],[-58.40765,-34.65983],[-58.40723,-34.66],[-58.40641,-34.66001],[-58.40543,-34.65968],[-58.40417,-34.65945],[-58.40308,-34.65935],[-58.40188,-34.65961],[-58.4011,-34.65995],[-58.40073,-34.6605],[-58.39981,-34.66091],[-58.39908,-34.66092],[-58.39793,-34.66123],[-58.39736,-34.66193],[-58.39642,-34.66203],[-58.39558,-34.66186],[-58.39482,-34.66212],[-58.39318,-34.6623],[-58.39247,-34.6622],[-58.39159,-34.66191],[-58.39089,-34.66127],[-58.39023,-34.66086],[-58.38802,-34.66033],[-58.38772,-34.66016],[-58.38691,-34.65941],[-58.38645,-34.65871],[-58.38579,-34.6582],[-58.38518,-34.65785],[-58.38341,-34.65753],[-58.3805,-34.65748],[-58.37985,-34.65751],[-58.37875,-34.65739],[-58.37764,-34.65713],[-58.37739,-34.65693],[-58.37662,-34.65695],[-58.37638,-34.65683],[-58.37511,-34.65695],[-58.37412,-34.65677],[-58.37363,-34.6564],[-58.37284,-34.65537],[-58.3718,-34.65465],[-58.37032,-34.65398],[-58.36979,-34.65358],[-58.36968,-34.65324],[-58.37002,-34.65211],[-58.36966,-34.65134],[-58.36864,-34.65067],[-58.36698,-34.64979],[-58.36498,-34.64879],[-58.36434,-34.64823],[-58.36392,-34.6481],[-58.3624,-34.64815],[-58.36181,-34.64783],[-58.36089,-34.64687],[-58.35982,-34.64597],[-58.35875,-34.64538],[-58.3576,-34.64498],[-58.35733,-34.64405],[-58.35748,-34.64346],[-58.35813,-34.64187],[-58.35849,-34.64156],[-58.36091,-34.64073],[-58.36144,-34.63987],[-58.36113,-34.6394],[-58.36036,-34.63919],[-58.35803,-34.63921],[-58.35697,-34.63857],[-58.35605,-34.63754],[-58.35414,-34.63652],[-58.35351,-34.63572],[-58.35325,-34.63511],[-58.35277,-34.63357],[-58.35379,-34.63068],[-58.35407,-34.63012],[-58.35469,-34.62923],[-58.35585,-34.62819],[-58.36127,-34.62469],[-58.36103,-34.62439],[-58.36192,-34.6238],[-58.36177,-34.62364],[-58.36084,-34.62426],[-58.3603,-34.62395],[-58.35397,-34.62809],[-58.35296,-34.62918],[-58.35239,-34.62901],[-58.35208,-34.62924],[-58.35125,-34.63126],[-58.35015,-34.63233],[-58.34907,-34.63256],[-58.34782,-34.63232],[-58.34759,-34.63208],[-58.3461,-34.63166],[-58.34615,-34.63154],[-58.34758,-34.6314],[-58.34793,-34.63116],[-58.34814,-34.63042],[-58.34869,-34.62935],[-58.34876,-34.62869],[-58.34706,-34.62729],[-58.34538,-34.62867],[-58.34458,-34.628],[-58.34285,-34.62944],[-58.34156,-34.62908],[-58.34141,-34.6289],[-58.34438,-34.62645],[-58.34428,-34.62638],[-58.34245,-34.62617],[-58.34027,-34.62797],[-58.33975,-34.62783],[-58.33945,-34.62862],[-58.33918,-34.62877],[-58.33822,-34.62856],[-58.33816,-34.62872],[-58.33693,-34.62838],[-58.33626,-34.62803],[-58.33518,-34.62712],[-58.33517,-34.62642],[-58.33703,-34.62489],[-58.33824,-34.6247],[-58.34005,-34.62324],[-58.34069,-34.62303],[-58.34189,-34.62304],[-58.3424,-34.62335],[-58.34303,-34.62272],[-58.34224,-34.62226],[-58.34191,-34.62243],[-58.3419,-34.62283],[-58.34096,-34.62262],[-58.33931,-34.62261],[-58.33806,-34.62281],[-58.33751,-34.62271],[-58.33698,-34.6222],[-58.33701,-34.62149],[-58.33742,-34.62092],[-58.33751,-34.62006],[-58.33804,-34.61901],[-58.33866,-34.61862],[-58.33918,-34.6185],[-58.3399,-34.6185],[-58.34039,-34.61869],[-58.34156,-34.61848],[-58.34266,-34.61854],[-58.34379,-34.61883],[-58.34435,-34.62053],[-58.34422,-34.62085],[-58.34434,-34.62147],[-58.34481,-34.62133],[-58.34549,-34.62153],[-58.3461,-34.62201],[-58.34592,-34.62249],[-58.34619,-34.62257],[-58.34652,-34.62199],[-58.34646,-34.62162],[-58.34697,-34.62099],[-58.34716,-34.61999],[-58.34657,-34.61928],[-58.34624,-34.61935],[-58.34545,-34.61988],[-58.34468,-34.61963],[-58.34455,-34.61906],[-58.34523,-34.61881],[-58.34597,-34.61886],[-58.34657,-34.61911],[-58.3473,-34.61894],[-58.34831,-34.61905],[-58.34907,-34.61965],[-58.34958,-34.61979],[-58.35017,-34.61974],[-58.35134,-34.61936],[-58.35139,-34.61936],[-58.3514,-34.61936],[-58.35141,-34.61936],[-58.35143,-34.61935],[-58.35144,-34.61935],[-58.35147,-34.61936],[-58.35147,-34.61937],[-58.35148,-34.61937],[-58.35149,-34.61937],[-58.35149,-34.61938],[-58.3515,-34.61938],[-58.35152,-34.61939],[-58.35158,-34.61943],[-58.35166,-34.61947],[-58.35179,-34.61955],[-58.35223,-34.61962],[-58.35257,-34.61954],[-58.35294,-34.61976],[-58.35303,-34.61962],[-58.35352,-34.61941],[-58.35392,-34.61962],[-58.35426,-34.61947],[-58.35482,-34.61952]]]},"properties":{"comuna":4,"barrios":"Barracas, La Boca, Parque Patricios, Nueva Pompeya"}},
{"type":"Feature","geometry":{"type":"Polygon","coordinates":[[[-58.41178,-34.63036],[-58.41207,-34.62514],[-58.41234,-34.62304],[-58.41205,-34.62298],[-58.41244,-34.62189],[-58.41264,-34.61959],[-58.41287,-34.61412],[-58.41332,-34.61286],[-58.41447,-34.61074],[-58.41466,-34.60819],[-58.4141,-34.60791],[-58.41391,-34.60725],[-58.4123,-34.60036],[-58.41192,-34.59801],[-58.416,-34.59786],[-58.42284,-34.59772],[-58.42337,-34.59775],[-58.42376,-34.59783],[-58.42631,-34.59789],[-58.42679,-34.59795],[-58.42778,-34.59833],[-58.42916,-34.59896],[-58.43028,-34.59989],[-58.43224,-34.60214],[-58.43334,-34.60268],[-58.43153,-34.60495],[-58.43067,-34.60595],[-58.43055,-34.60792],[-58.43048,-34.60873],[-58.43042,-34.60947],[-58.43032,-34.61113],[-58.43013,-34.61333],[-58.43009,-34.61402],[-58.43003,-34.61545],[-58.42926,-34.61511],[-58.42922,-34.61526],[-58.42829,-34.61959],[-58.42828,-34.61963],[-58.42794,-34.62134],[-58.42718,-34.62514],[-58.42701,-34.62587],[-58.42697,-34.62605],[-58.42646,-34.62832],[-58.42636,-34.62878],[-58.42625,-34.62923],[-58.42602,-34.63027],[-58.42594,-34.6307],[-58.42576,-34.63149],[-58.42553,-34.63237],[-58.42546,-34.63265],[-58.42349,-34.6402],[-58.42092,-34.63975],[-58.41863,-34.63936],[-58.41846,-34.63934],[-58.41845,-34.63934],[-58.41709,-34.63911],[-58.41609,-34.63894],[-58.41592,-34.63891],[-58.41126,-34.6381],[-58.41093,-34.63705],[-58.41052,-34.63571],[-58.41057,-34.6351],[-58.41099,-34.63424],[-58.41148,-34.63297],[-58.41178,-34.63036]]]},"properties":{"comuna":5,"barrios":"Almagro, Boedo"}},
{"type":"Feature","geometry":{"type":"Polygon","coordinates":[[[-58.43055,-34.60792],[-58.43067,-34.60595],[-58.43153,-34.60495],[-58.43334,-34.60268],[-58.43497,-34.60349],[-58.43662,-34.60429],[-58.43705,-34.6045],[-58.43706,-34.6045],[-58.43798,-34.60496],[-58.4392,-34.60559],[-58.44147,-34.60621],[-58.44283,-34.60658],[-58.44417,-34.60693],[-58.44513,-34.60718],[-58.44625,-34.60762],[-58.44704,-34.60742],[-58.45024,-34.60663],[-58.45074,-34.6065],[-58.45102,-34.60643],[-58.45151,-34.6063],[-58.45307,-34.6059],[-58.45848,-34.6045],[-58.45878,-34.60472],[-58.46271,-34.60738],[-58.45955,-34.61375],[-58.45945,-34.61389],[-58.45903,-34.61474],[-58.45505,-34.62346],[-58.45394,-34.62577],[-58.45267,-34.62834],[-58.45158,-34.63064],[-58.44293,-34.62936],[-58.43255,-34.62784],[-58.42676,-34.627],[-58.42697,-34.62605],[-58.42701,-34.62587],[-58.42718,-34.62514],[-58.42794,-34.62134],[-58.42828,-34.61963],[-58.42829,-34.61959],[-58.42922,-34.61526],[-58.42926,-34.61511],[-58.43003,-34.61545],[-58.43009,-34.61402],[-58.43013,-34.61333],[-58.43032,-34.61113],[-58.43042,-34.60947],[-58.43048,-34.60873],[-58.43055,-34.60792]]]},"properties":{"comuna":6,"barrios":"Caballito"}},
{"type":"Feature","geometry":{"type":"Polygon","coordinates":[[[-58.42676,-34.627],[-58.43255,-34.62784],[-58.44293,-34.62936],[-58.45158,-34.63064],[-58.45267,-34.62834],[-58.45394,-34.62577],[-58.45505,-34.62346],[-58.45903,-34.61474],[-58.45945,-34.61389],[-58.46454,-34.61579],[-58.46864,-34.61757],[-58.47279,-34.61978],[-58.47781,-34.62239],[-58.47702,-34.62408],[-58.47348,-34.6318],[-58.4713,-34.63666],[-58.46924,-34.6414],[-58.46799,-34.64242],[-58.46509,-34.64472],[-58.46342,-34.64592],[-58.463,-34.64617],[-58.46336,-34.64683],[-58.46703,-34.65147],[-58.46543,-34.6529],[-58.46394,-34.65396],[-58.46257,-34.65503],[-58.46111,-34.65629],[-58.4604,-34.65681],[-58.4592,-34.65577],[-58.45834,-34.65511],[-58.457,-34.65394],[-58.45533,-34.65254],[-58.45494,-34.65217],[-58.45464,-34.65083],[-58.45198,-34.65108],[-58.44883,-34.65118],[-58.44495,-34.65101],[-58.44333,-34.65119],[-58.44321,-34.65158],[-58.44275,-34.65207],[-58.43885,-34.65511],[-58.43801,-34.65581],[-58.4371,-34.65511],[-58.43602,-34.65437],[-58.43444,-34.65312],[-58.43203,-34.65121],[-58.43043,-34.64988],[-58.4345,-34.64668],[-58.43493,-34.64624],[-58.43262,-34.64522],[-58.43211,-34.64517],[-58.43235,-34.64175],[-58.43093,-34.64145],[-58.42349,-34.6402],[-58.42546,-34.63265],[-58.42553,-34.63237],[-58.42576,-34.63149],[-58.42594,-34.6307],[-58.42602,-34.63027],[-58.42625,-34.62923],[-58.42636,-34.62878],[-58.42646,-34.62832],[-58.42676,-34.627]]]},"properties":{"comuna":7,"barrios":"Flores, Parque Chacabuco"}},
{"type":"Feature","geometry":{"type":"Polygon","coordinates":[[[-58.43444,-34.65312],[-58.43602,-34.65437],[-58.4371,-34.65511],[-58.43801,-34.65581],[-58.43885,-34.65511],[-58.44275,-34.65207],[-58.44321,-34.65158],[-58.44333,-34.65119],[-58.44495,-34.65101],[-58.44883,-34.65118],[-58.45198,-34.65108],[-58.45464,-34.65083],[-58.45494,-34.65217],[-58.45533,-34.65254],[-58.457,-34.65394],[-58.45834,-34.65511],[-58.4592,-34.65577],[-58.4604,-34.65681],[-58.46158,-34.65788],[-58.46443,-34.66005],[-58.46519,-34.65943],[-58.46766,-34.65752],[-58.46956,-34.65911],[-58.47057,-34.65843],[-58.47252,-34.66278],[-58.47444,-34.66129],[-58.47882,-34.65785],[-58.47946,-34.65829],[-58.48413,-34.6613],[-58.48595,-34.66245],[-58.48895,-34.66335],[-58.49113,-34.66539],[-58.4926,-34.66687],[-58.49361,-34.66797],[-58.49587,-34.6702],[-58.49704,-34.67118],[-58.49913,-34.67264],[-58.50164,-34.67399],[-58.50253,-34.67451],[-58.48336,-34.68896],[-58.46175,-34.70527],[-58.46159,-34.70536],[-58.46107,-34.70467],[-58.45888,-34.70223],[-58.45399,-34.6965],[-58.45125,-34.69318],[-58.44445,-34.68517],[-58.44194,-34.68219],[-58.44117,-34.68132],[-58.4405,-34.68041],[-58.43861,-34.67822],[-58.4345,-34.67328],[-58.43353,-34.67224],[-58.43247,-34.67084],[-58.43135,-34.6696],[-58.43009,-34.66805],[-58.42913,-34.66704],[-58.4285,-34.66619],[-58.42804,-34.66573],[-58.4274,-34.66488],[-58.42661,-34.66411],[-58.42521,-34.66285],[-58.42443,-34.66239],[-58.42404,-34.66205],[-58.42675,-34.65868],[-58.43139,-34.65534],[-58.43444,-34.65312]]]},"properties":{"comuna":8,"barrios":"Villa Lugano, Villa Riachuelo, Villa Soldati"}},
{"type":"Feature","geometry":{"type":"Polygon","coordinates":[[[-58.4713,-34.63666],[-58.47349,-34.63731],[-58.47607,-34.63894],[-58.47855,-34.637],[-58.48288,-34.63898],[-58.49024,-34.64246],[-58.49484,-34.64466],[-58.4953,-34.64485],[-58.49714,-34.64341],[-58.5023,-34.64582],[-58.50333,-34.64498],[-58.50979,-34.64008],[-58.51051,-34.63738],[-58.50567,-34.63672],[-58.50682,-34.63582],[-58.50765,-34.6359],[-58.50883,-34.63556],[-58.51067,-34.63482],[-58.51332,-34.63367],[-58.51486,-34.63321],[-58.51709,-34.63302],[-58.52053,-34.63301],[-58.52081,-34.6334],[-58.52069,-34.63383],[-58.52234,-34.63402],[-58.5243,-34.63448],[-58.52692,-34.63469],[-58.52708,-34.63476],[-58.52871,-34.63487],[-58.53036,-34.6348],[-58.52921,-34.6543],[-58.52577,-34.6569],[-58.50253,-34.67451],[-58.50164,-34.67399],[-58.49913,-34.67264],[-58.49704,-34.67118],[-58.49587,-34.6702],[-58.49361,-34.66797],[-58.4926,-34.66687],[-58.49113,-34.66539],[-58.48895,-34.66335],[-58.48595,-34.66245],[-58.48413,-34.6613],[-58.47946,-34.65829],[-58.47882,-34.65785],[-58.47444,-34.66129],[-58.47252,-34.66278],[-58.47057,-34.65843],[-58.46956,-34.65911],[-58.46766,-34.65752],[-58.46519,-34.65943],[-58.46443,-34.66005],[-58.46158,-34.65788],[-58.4604,-34.65681],[-58.46111,-34.65629],[-58.46257,-34.65503],[-58.46394,-34.65396],[-58.46543,-34.6529],[-58.46703,-34.65147],[-58.46336,-34.64683],[-58.463,-34.64617],[-58.46342,-34.64592],[-58.46509,-34.64472],[-58.46799,-34.64242],[-58.46924,-34.6414],[-58.4713,-34.63666]]]},"properties":{"comuna":9,"barrios":"Parque Avellaneda, Mataderos, Liniers"}},
{"type":"Feature","geometry":{"type":"Polygon","coordinates":[[[-58.47781,-34.62239],[-58.47938,-34.6232],[-58.48274,-34.62463],[-58.48497,-34.62285],[-58.49557,-34.6144],[-58.50019,-34.60913],[-58.50428,-34.61156],[-58.50974,-34.61476],[-58.51305,-34.61674],[-58.51695,-34.62022],[-58.52312,-34.61551],[-58.52506,-34.61397],[-58.52561,-34.61367],[-58.52855,-34.61151],[-58.52947,-34.6109],[-58.53152,-34.6155],[-58.5308,-34.62753],[-58.53036,-34.6348],[-58.52871,-34.63487],[-58.52708,-34.63476],[-58.52692,-34.63469],[-58.5243,-34.63448],[-58.52234,-34.63402],[-58.52069,-34.63383],[-58.52081,-34.6334],[-58.52053,-34.63301],[-58.51709,-34.63302],[-58.51486,-34.63321],[-58.51332,-34.63367],[-58.51067,-34.63482],[-58.50883,-34.63556],[-58.50765,-34.6359],[-58.50682,-34.63582],[-58.50567,-34.63672],[-58.51051,-34.63738],[-58.50979,-34.64008],[-58.50333,-34.64498],[-58.5023,-34.64582],[-58.49714,-34.64341],[-58.4953,-34.64485],[-58.49484,-34.64466],[-58.49024,-34.64246],[-58.48288,-34.63898],[-58.47855,-34.637],[-58.47607,-34.63894],[-58.47349,-34.63731],[-58.4713,-34.63666],[-58.47348,-34.6318],[-58.47702,-34.62408],[-58.47781,-34.62239]]]},"properties":{"comuna":10,"barrios":"Floresta, Monte Castro, Velez Sarsfield, Versalles, Villa Luro, Villa Real"}},
{"type":"Feature","geometry":{"type":"Polygon","coordinates":[[[-58.49342,-34.59704],[-58.49713,-34.59679],[-58.49718,-34.59682],[-58.49963,-34.59591],[-58.50354,-34.59446],[-58.50308,-34.59439],[-58.50347,-34.59396],[-58.51452,-34.58175],[-58.51497,-34.58132],[-58.51554,-34.58127],[-58.52263,-34.59635],[-58.52947,-34.6109],[-58.52855,-34.61151],[-58.52561,-34.61367],[-58.52506,-34.61397],[-58.52312,-34.61551],[-58.51695,-34.62022],[-58.51305,-34.61674],[-58.50974,-34.61476],[-58.50428,-34.61156],[-58.50019,-34.60913],[-58.49557,-34.6144],[-58.48497,-34.62285],[-58.48274,-34.62463],[-58.47938,-34.6232],[-58.47781,-34.62239],[-58.47279,-34.61978],[-58.46864,-34.61757],[-58.46454,-34.61579],[-58.45945,-34.61389],[-58.45955,-34.61375],[-58.46271,-34.60738],[-58.45878,-34.60472],[-58.45848,-34.6045],[-58.46147,-34.60373],[-58.46211,-34.60357],[-58.46436,-34.603],[-58.4658,-34.60264],[-58.46734,-34.60225],[-58.46891,-34.60187],[-58.46929,-34.60217],[-58.47044,-34.60294],[-58.47161,-34.60383],[-58.47265,-34.60447],[-58.47402,-34.60532],[-58.47638,-34.60237],[-58.4775,-34.60083],[-58.47667,-34.60036],[-58.47639,-34.6002],[-58.47773,-34.59992],[-58.47854,-34.59974],[-58.47883,-34.59968],[-58.48284,-34.59795],[-58.48329,-34.5978],[-58.48346,-34.59776],[-58.48485,-34.59764],[-58.48649,-34.59752],[-58.48783,-34.59742],[-58.49019,-34.59726],[-58.49342,-34.59704]]]},"properties":{"comuna":11,"barrios":"Villa Del Parque, Villa Devoto, Villa Gral. Mitre, Villa Santa Rita"}},
{"type":"Feature","geometry":{"type":"Polygon","coordinates":[[[-58.50347,-34.59396],[-58.49707,-34.59001],[-58.49536,-34.58895],[-58.49423,-34.58825],[-58.49366,-34.5879],[-58.49197,-34.58683],[-58.49085,-34.58612],[-58.48879,-34.58482],[-58.48583,-34.5831],[-58.48475,-34.58248],[-58.48313,-34.58154],[-58.48113,-34.58037],[-58.48031,-34.5799],[-58.47923,-34.57928],[-58.47866,-34.57893],[-58.47777,-34.57843],[-58.47733,-34.57818],[-58.4756,-34.5772],[-58.47374,-34.57614],[-58.46808,-34.57291],[-58.47118,-34.56926],[-58.47278,-34.56736],[-58.47337,-34.56667],[-58.47296,-34.56642],[-58.47065,-34.56501],[-58.46765,-34.56305],[-58.46649,-34.5622],[-58.46769,-34.56169],[-58.46704,-34.56132],[-58.46965,-34.55843],[-58.47087,-34.55704],[-58.47245,-34.55502],[-58.47299,-34.55433],[-58.47444,-34.55243],[-58.4693,-34.54959],[-58.46819,-34.54895],[-58.46851,-34.54855],[-58.46867,-34.54835],[-58.47101,-34.54529],[-58.4721,-34.54382],[-58.47269,-34.54302],[-58.47379,-34.54154],[-58.47436,-34.54077],[-58.47542,-34.53934],[-58.47585,-34.53878],[-58.47595,-34.53864],[-58.50055,-34.5495],[-58.50988,-34.56927],[-58.51029,-34.57028],[-58.51554,-34.58127],[-58.51497,-34.58132],[-58.51452,-34.58175],[-58.50347,-34.59396]]]},"properties":{"comuna":12,"barrios":"Villa Urquiza, Villa Pueyrredon, Saavedra, Coghlan"}},
{"type":"Feature","geometry":{"type":"Polygon","coordinates":[[[-58.4265,-34.55181],[-58.42607,-34.55089],[-58.42563,-34.55043],[-58.42543,-34.5497],[-58.42495,-34.54909],[-58.42537,-34.54908],[-58.42553,-34.54884],[-58.42656,-34.54823],[-58.42706,-34.54804],[-58.42755,-34.54802],[-58.42835,-34.54817],[-58.42953,-34.54864],[-58.43004,-34.54804],[-58.42975,-34.54764],[-58.42993,-34.54697],[-58.4305,-34.54637],[-58.43134,-34.54479],[-58.43205,-34.54406],[-58.43325,-34.54333],[-58.43438,-34.54279],[-58.43479,-34.54237],[-58.43519,-34.54136],[-58.43551,-34.54096],[-58.43617,-34.54039],[-58.437,-34.54007],[-58.4382,-34.53995],[-58.43928,-34.54013],[-58.44021,-34.53984],[-58.44032,-34.54021],[-58.44089,-34.54021],[-58.44084,-34.53915],[-58.4411,-34.53914],[-58.44107,-34.53858],[-58.44134,-34.53856],[-58.44151,-34.53786],[-58.44177,-34.53791],[-58.44282,-34.53676],[-58.44346,-34.53639],[-58.44469,-34.53612],[-58.44622,-34.53598],[-58.44736,-34.53637],[-58.44779,-34.53661],[-58.44796,-34.53697],[-58.44836,-34.53734],[-58.44869,-34.53723],[-58.44935,-34.53642],[-58.4493,-34.53613],[-58.44881,-34.53583],[-58.44907,-34.53556],[-58.45003,-34.53612],[-58.44988,-34.53736],[-58.45024,-34.53768],[-58.45119,-34.53815],[-58.45194,-34.53902],[-58.45217,-34.53956],[-58.45279,-34.53943],[-58.45409,-34.53879],[-58.45463,-34.53812],[-58.45478,-34.53731],[-58.45407,-34.53654],[-58.45329,-34.53592],[-58.45279,-34.53571],[-58.45152,-34.53564],[-58.45066,-34.53565],[-58.44996,-34.53509],[-58.45014,-34.53412],[-58.45068,-34.53294],[-58.45079,-34.53216],[-58.45106,-34.53187],[-58.45171,-34.53169],[-58.45206,-34.532],[-58.45264,-34.53307],[-58.45351,-34.53434],[-58.45376,-34.53494],[-58.45498,-34.53567],[-58.45627,-34.53634],[-58.45848,-34.53728],[-58.45882,-34.53713],[-58.45688,-34.53624],[-58.45497,-34.53528],[-58.45467,-34.53495],[-58.4527,-34.53203],[-58.45204,-34.53117],[-58.45168,-34.53054],[-58.45195,-34.53002],[-58.45405,-34.52931],[-58.45556,-34.52745],[-58.45664,-34.52679],[-58.45743,-34.52652],[-58.45832,-34.52659],[-58.45909,-34.52701],[-58.45945,-34.52742],[-58.45951,-34.52784],[-58.46031,-34.52883],[-58.46107,-34.53014],[-58.4638,-34.53327],[-58.47595,-34.53864],[-58.47585,-34.53878],[-58.47542,-34.53934],[-58.47436,-34.54077],[-58.47379,-34.54154],[-58.47269,-34.54302],[-58.4721,-34.54382],[-58.47101,-34.54529],[-58.46867,-34.54835],[-58.46851,-34.54855],[-58.46819,-34.54895],[-58.4693,-34.54959],[-58.47444,-34.55243],[-58.47299,-34.55433],[-58.47245,-34.55502],[-58.47087,-34.55704],[-58.46965,-34.55843],[-58.46704,-34.56132],[-58.46769,-34.56169],[-58.46649,-34.5622],[-58.46765,-34.56305],[-58.47065,-34.56501],[-58.47296,-34.56642],[-58.47337,-34.56667],[-58.47278,-34.56736],[-58.47118,-34.56926],[-58.46808,-34.57291],[-58.46737,-34.5725],[-58.46319,-34.57511],[-58.46238,-34.57604],[-58.46023,-34.5783],[-58.45775,-34.57844],[-58.4554,-34.57908],[-58.45102,-34.58048],[-58.44828,-34.58153],[-58.44445,-34.58318],[-58.44343,-34.5818],[-58.43994,-34.57855],[-58.44089,-34.5778],[-58.44182,-34.57682],[-58.44273,-34.57617],[-58.44397,-34.57537],[-58.44075,-34.57211],[-58.44364,-34.57057],[-58.44669,-34.56907],[-58.44905,-34.56786],[-58.44786,-34.56672],[-58.44262,-34.56363],[-58.44254,-34.5637],[-58.44117,-34.56214],[-58.43844,-34.56248],[-58.43643,-34.56258],[-58.43541,-34.56254],[-58.43486,-34.5621],[-58.43496,-34.5618],[-58.43603,-34.56192],[-58.43766,-34.56183],[-58.43893,-34.56144],[-58.4399,-34.5609],[-58.44066,-34.56028],[-58.44096,-34.55992],[-58.44139,-34.55882],[-58.44117,-34.55808],[-58.44092,-34.55773],[-58.44016,-34.55711],[-58.43881,-34.55651],[-58.4377,-34.55615],[-58.43733,-34.55593],[-58.43625,-34.55504],[-58.43534,-34.55453],[-58.43411,-34.55396],[-58.43466,-34.5536],[-58.43443,-34.55306],[-58.43234,-34.55186],[-58.43168,-34.55142],[-58.43067,-34.55104],[-58.4294,-34.55096],[-58.42879,-34.55116],[-58.4267,-34.55205],[-58.42657,-34.55183],[-58.4265,-34.55181]]]},"properties":{"comuna":13,"barrios":"Belgrano, Nuñez, Colegiales"}},
{"type":"Feature","geometry":{"type":"Polygon","coordinates":[[[-58.39299,-34.57198],[-58.39457,-34.56923],[-58.39492,-34.56926],[-58.39522,-34.56895],[-58.39525,-34.56861],[-58.39606,-34.56743],[-58.39654,-34.56688],[-58.3972,-34.56661],[-58.39753,-34.56672],[-58.39993,-34.56919],[-58.40019,-34.56902],[-58.39865,-34.56736],[-58.39769,-34.56655],[-58.39753,-34.56627],[-58.39705,-34.56601],[-58.39675,-34.56545],[-58.39704,-34.56501],[-58.39788,-34.56454],[-58.3985,-34.56398],[-58.39952,-34.56362],[-58.40033,-34.56399],[-58.40071,-34.56431],[-58.40111,-34.56404],[-58.40094,-34.56342],[-58.40126,-34.56335],[-58.40224,-34.5639],[-58.40269,-34.56396],[-58.40338,-34.56388],[-58.40356,-34.56349],[-58.40326,-34.56322],[-58.39889,-34.56094],[-58.39893,-34.56088],[-58.40391,-34.56348],[-58.40443,-34.56283],[-58.40482,-34.56267],[-58.40659,-34.56103],[-58.40804,-34.55946],[-58.40878,-34.55874],[-58.40921,-34.55848],[-58.40933,-34.55761],[-58.40953,-34.55722],[-58.40952,-34.55663],[-58.41017,-34.55674],[-58.41259,-34.55552],[-58.41418,-34.55489],[-58.41594,-34.55436],[-58.41746,-34.55403],[-58.4187,-34.55383],[-58.4204,-34.55362],[-58.42289,-34.55302],[-58.42424,-34.55265],[-58.4257,-34.55216],[-58.4265,-34.55181],[-58.42657,-34.55183],[-58.4267,-34.55205],[-58.42879,-34.55116],[-58.4294,-34.55096],[-58.43067,-34.55104],[-58.43168,-34.55142],[-58.43234,-34.55186],[-58.43443,-34.55306],[-58.43466,-34.5536],[-58.43411,-34.55396],[-58.43534,-34.55453],[-58.43625,-34.55504],[-58.43733,-34.55593],[-58.4377,-34.55615],[-58.43881,-34.55651],[-58.44016,-34.55711],[-58.44092,-34.55773],[-58.44117,-34.55808],[-58.44139,-34.55882],[-58.44096,-34.55992],[-58.44066,-34.56028],[-58.4399,-34.5609],[-58.43893,-34.56144],[-58.43766,-34.56183],[-58.43603,-34.56192],[-58.43496,-34.5618],[-58.43486,-34.5621],[-58.43541,-34.56254],[-58.43643,-34.56258],[-58.43844,-34.56248],[-58.44117,-34.56214],[-58.44254,-34.5637],[-58.44262,-34.56363],[-58.44786,-34.56672],[-58.44905,-34.56786],[-58.44669,-34.56907],[-58.44364,-34.57057],[-58.44075,-34.57211],[-58.44397,-34.57537],[-58.44273,-34.57617],[-58.44182,-34.57682],[-58.44089,-34.5778],[-58.43994,-34.57855],[-58.44343,-34.5818],[-58.44445,-34.58318],[-58.44479,-34.58452],[-58.44459,-34.58467],[-58.4385,-34.5887],[-58.43604,-34.59035],[-58.43029,-34.59417],[-58.42695,-34.59622],[-58.42485,-34.59707],[-58.42337,-34.59775],[-58.42284,-34.59772],[-58.416,-34.59786],[-58.4144,-34.59406],[-58.41353,-34.59308],[-58.41008,-34.58906],[-58.4064,-34.58381],[-58.40618,-34.58346],[-58.40195,-34.58343],[-58.40113,-34.58395],[-58.40055,-34.58448],[-58.39937,-34.58272],[-58.39811,-34.58071],[-58.39656,-34.57851],[-58.39859,-34.57718],[-58.39994,-34.5765],[-58.40115,-34.57574],[-58.40166,-34.57532],[-58.40265,-34.57415],[-58.39972,-34.57081],[-58.39966,-34.5702],[-58.3993,-34.5699],[-58.39918,-34.56996],[-58.39878,-34.57016],[-58.39521,-34.5722],[-58.39482,-34.57232],[-58.39321,-34.57222],[-58.39299,-34.57198]]]},"properties":{"comuna":14,"barrios":"Palermo"}},
{"type":"Feature","geometry":{"type":"Polygon","coordinates":[[[-58.42337,-34.59775],[-58.42485,-34.59707],[-58.42695,-34.59622],[-58.43029,-34.59417],[-58.43604,-34.59035],[-58.4385,-34.5887],[-58.44459,-34.58467],[-58.44479,-34.58452],[-58.44445,-34.58318],[-58.44828,-34.58153],[-58.45102,-34.58048],[-58.4554,-34.57908],[-58.45775,-34.57844],[-58.46023,-34.5783],[-58.46238,-34.57604],[-58.46319,-34.57511],[-58.46737,-34.5725],[-58.46808,-34.57291],[-58.47374,-34.57614],[-58.4756,-34.5772],[-58.47733,-34.57818],[-58.47777,-34.57843],[-58.47866,-34.57893],[-58.47923,-34.57928],[-58.48031,-34.5799],[-58.48113,-34.58037],[-58.48313,-34.58154],[-58.48475,-34.58248],[-58.48583,-34.5831],[-58.48879,-34.58482],[-58.49085,-34.58612],[-58.49197,-34.58683],[-58.49366,-34.5879],[-58.49423,-34.58825],[-58.49536,-34.58895],[-58.49707,-34.59001],[-58.50347,-34.59396],[-58.50308,-34.59439],[-58.50354,-34.59446],[-58.49963,-34.59591],[-58.49718,-34.59682],[-58.49713,-34.59679],[-58.49342,-34.59704],[-58.49019,-34.59726],[-58.48783,-34.59742],[-58.48649,-34.59752],[-58.48485,-34.59764],[-58.48346,-34.59776],[-58.48329,-34.5978],[-58.48284,-34.59795],[-58.47883,-34.59968],[-58.47854,-34.59974],[-58.47773,-34.59992],[-58.47639,-34.6002],[-58.47667,-34.60036],[-58.4775,-34.60083],[-58.47638,-34.60237],[-58.47402,-34.60532],[-58.47265,-34.60447],[-58.47161,-34.60383],[-58.47044,-34.60294],[-58.46929,-34.60217],[-58.46891,-34.60187],[-58.46734,-34.60225],[-58.4658,-34.60264],[-58.46436,-34.603],[-58.46211,-34.60357],[-58.46147,-34.60373],[-58.46054,-34.60397],[-58.46002,-34.6041],[-58.45808,-34.6046],[-58.45307,-34.6059],[-58.45151,-34.6063],[-58.45102,-34.60643],[-58.45074,-34.6065],[-58.45024,-34.60663],[-58.44704,-34.60742],[-58.44625,-34.60762],[-58.44513,-34.60718],[-58.44417,-34.60693],[-58.44283,-34.60658],[-58.44147,-34.60621],[-58.4392,-34.60559],[-58.43798,-34.60496],[-58.43706,-34.6045],[-58.43705,-34.6045],[-58.43662,-34.60429],[-58.43497,-34.60349],[-58.43334,-34.60268],[-58.43224,-34.60214],[-58.43028,-34.59989],[-58.42916,-34.59896],[-58.42778,-34.59833],[-58.42679,-34.59795],[-58.42631,-34.59789],[-58.42376,-34.59783],[-58.42337,-34.59775]]]},"properties":{"comuna":15,"barrios":"Villa Ortuzar, Agronomia, Paternal, Parque Chas, Chacarita, Villa Crespo"}}
]}